[{"OBJECT_NAME":"COSMOS 2251 DEB","OBJECT_ID":"1993-036AXH","EPOCH":"2026-04-05T15:52:45.412608","MEAN_MOTION":14.66001469,"ECCENTRICITY":0.0057234,"INCLINATION":74.0141,"RA_OF_ASC_NODE":56.8632,"ARG_OF_PERICENTER":176.6526,"MEAN_ANOMALY":357.2368,"EPHEMERIS_TYPE":0,"CLASSIFICATION_TYPE":"U","NORAD_CAT_ID":36046,"ELEMENT_SET_NO":999,"REV_AT_EPOCH":65672,"BSTAR":0.00064733,"MEAN_MOTION_DOT":3.604e-5,"MEAN_MOTION_DDOT":0},{"OBJECT_NAME":"COSMOS 2251 DEB","OBJECT_ID":"1993-036AXJ","EPOCH":"2026-04-05T10:09:43.404192","MEAN_MOTION":15.04586107,"ECCENTRICITY":0.00042725,"INCLINATION":74.0293,"RA_OF_ASC_NODE":103.009,"ARG_OF_PERICENTER":208.9901,"MEAN_ANOMALY":151.1052,"EPHEMERIS_TYPE":0,"CLASSIFICATION_TYPE":"U","NORAD_CAT_ID":36047,"ELEMENT_SET_NO":999,"REV_AT_EPOCH":67644,"BSTAR":0.0030309446,"MEAN_MOTION_DOT":0.00042778,"MEAN_MOTION_DDOT":0},{"OBJECT_NAME":"COSMOS 2251 DEB","OBJECT_ID":"1993-036AXK","EPOCH":"2026-04-05T06:38:26.318400","MEAN_MOTION":14.38051745,"ECCENTRICITY":0.0025045,"INCLINATION":74.0543,"RA_OF_ASC_NODE":90.455,"ARG_OF_PERICENTER":117.9611,"MEAN_ANOMALY":258.1261,"EPHEMERIS_TYPE":0,"CLASSIFICATION_TYPE":"U","NORAD_CAT_ID":36048,"ELEMENT_SET_NO":999,"REV_AT_EPOCH":87134,"BSTAR":0.00028997,"MEAN_MOTION_DOT":8.55e-6,"MEAN_MOTION_DDOT":0},{"OBJECT_NAME":"COSMOS 2251 DEB","OBJECT_ID":"1993-036AXL","EPOCH":"2026-04-05T10:28:23.933568","MEAN_MOTION":14.63641218,"ECCENTRICITY":0.00102254,"INCLINATION":74.0305,"RA_OF_ASC_NODE":261.133,"ARG_OF_PERICENTER":318.4264,"MEAN_ANOMALY":41.6125,"EPHEMERIS_TYPE":0,"CLASSIFICATION_TYPE":"U","NORAD_CAT_ID":36049,"ELEMENT_SET_NO":999,"REV_AT_EPOCH":87027,"BSTAR":0.0015263978,"MEAN_MOTION_DOT":7.921e-5,"MEAN_MOTION_DDOT":0},{"OBJECT_NAME":"COSMOS 2251 DEB","OBJECT_ID":"1993-036AXM","EPOCH":"2026-04-05T07:35:00.543264","MEAN_MOTION":15.03334688,"ECCENTRICITY":0.0082506,"INCLINATION":74.0314,"RA_OF_ASC_NODE":322.3064,"ARG_OF_PERICENTER":11.0815,"MEAN_ANOMALY":349.2164,"EPHEMERIS_TYPE":0,"CLASSIFICATION_TYPE":"U","NORAD_CAT_ID":36050,"ELEMENT_SET_NO":999,"REV_AT_EPOCH":68740,"BSTAR":0.00066913,"MEAN_MOTION_DOT":9.759e-5,"MEAN_MOTION_DDOT":0},{"OBJECT_NAME":"COSMOS 2251 DEB","OBJECT_ID":"1993-036AXQ","EPOCH":"2026-04-05T19:34:47.472672","MEAN_MOTION":14.58990534,"ECCENTRICITY":0.0032227,"INCLINATION":73.8694,"RA_OF_ASC_NODE":293.4693,"ARG_OF_PERICENTER":217.2711,"MEAN_ANOMALY":142.6217,"EPHEMERIS_TYPE":0,"CLASSIFICATION_TYPE":"U","NORAD_CAT_ID":36053,"ELEMENT_SET_NO":999,"REV_AT_EPOCH":89107,"BSTAR":0.0016002,"MEAN_MOTION_DOT":7.543e-5,"MEAN_MOTION_DDOT":0},{"OBJECT_NAME":"COSMOS 2251 DEB","OBJECT_ID":"1993-036AXV","EPOCH":"2026-03-31T13:51:37.846368","MEAN_MOTION":14.59342071,"ECCENTRICITY":0.0046625,"INCLINATION":74.0245,"RA_OF_ASC_NODE":185.916,"ARG_OF_PERICENTER":290.918,"MEAN_ANOMALY":68.6997,"EPHEMERIS_TYPE":0,"CLASSIFICATION_TYPE":"U","NORAD_CAT_ID":36058,"ELEMENT_SET_NO":999,"REV_AT_EPOCH":67698,"BSTAR":0.00071,"MEAN_MOTION_DOT":3.38e-5,"MEAN_MOTION_DDOT":0},{"OBJECT_NAME":"COSMOS 2251 DEB","OBJECT_ID":"1993-036AXX","EPOCH":"2026-04-03T12:49:55.683264","MEAN_MOTION":14.42286809,"ECCENTRICITY":0.00138489,"INCLINATION":74.0312,"RA_OF_ASC_NODE":27.1943,"ARG_OF_PERICENTER":105.1176,"MEAN_ANOMALY":255.1514,"EPHEMERIS_TYPE":0,"CLASSIFICATION_TYPE":"U","NORAD_CAT_ID":36060,"ELEMENT_SET_NO":999,"REV_AT_EPOCH":86621,"BSTAR":0.00052045604,"MEAN_MOTION_DOT":1.693e-5,"MEAN_MOTION_DDOT":0},{"OBJECT_NAME":"COSMOS 2251 DEB","OBJECT_ID":"1993-036AXY","EPOCH":"2026-04-05T09:41:33.376128","MEAN_MOTION":14.3393061,"ECCENTRICITY":0.00394064,"INCLINATION":74.0234,"RA_OF_ASC_NODE":151.6775,"ARG_OF_PERICENTER":214.8016,"MEAN_ANOMALY":145.0558,"EPHEMERIS_TYPE":0,"CLASSIFICATION_TYPE":"U","NORAD_CAT_ID":36061,"ELEMENT_SET_NO":999,"REV_AT_EPOCH":66733,"BSTAR":0.00033094349,"MEAN_MOTION_DOT":9.04e-6,"MEAN_MOTION_DDOT":0},{"OBJECT_NAME":"COSMOS 2251 DEB","OBJECT_ID":"1993-036AYL","EPOCH":"2026-03-30T08:44:07.251648","MEAN_MOTION":14.35106407,"ECCENTRICITY":0.00245352,"INCLINATION":74.0298,"RA_OF_ASC_NODE":125.248,"ARG_OF_PERICENTER":174.0306,"MEAN_ANOMALY":186.1143,"EPHEMERIS_TYPE":0,"CLASSIFICATION_TYPE":"U","NORAD_CAT_ID":36073,"ELEMENT_SET_NO":999,"REV_AT_EPOCH":71751,"BSTAR":0.00021282816,"MEAN_MOTION_DOT":5.83e-6,"MEAN_MOTION_DDOT":0},{"OBJECT_NAME":"COSMOS 2251 DEB","OBJECT_ID":"1993-036AYM","EPOCH":"2026-04-05T12:13:42.949632","MEAN_MOTION":14.44687971,"ECCENTRICITY":0.00447006,"INCLINATION":73.99,"RA_OF_ASC_NODE":128.2422,"ARG_OF_PERICENTER":198.6276,"MEAN_ANOMALY":161.3248,"EPHEMERIS_TYPE":0,"CLASSIFICATION_TYPE":"U","NORAD_CAT_ID":36074,"ELEMENT_SET_NO":999,"REV_AT_EPOCH":87552,"BSTAR":0.0010058612,"MEAN_MOTION_DOT":3.504e-5,"MEAN_MOTION_DDOT":0},{"OBJECT_NAME":"COSMOS 2251 DEB","OBJECT_ID":"1993-036AYT","EPOCH":"2026-04-02T15:17:44.912832","MEAN_MOTION":14.34552816,"ECCENTRICITY":0.00839874,"INCLINATION":74.0642,"RA_OF_ASC_NODE":70.4711,"ARG_OF_PERICENTER":72.7226,"MEAN_ANOMALY":288.3094,"EPHEMERIS_TYPE":0,"CLASSIFICATION_TYPE":"U","NORAD_CAT_ID":36366,"ELEMENT_SET_NO":999,"REV_AT_EPOCH":87878,"BSTAR":0.0020457664,"MEAN_MOTION_DOT":5.989e-5,"MEAN_MOTION_DDOT":0},{"OBJECT_NAME":"COSMOS 2251 DEB","OBJECT_ID":"1993-036AYU","EPOCH":"2026-04-05T13:15:26.810496","MEAN_MOTION":13.86855056,"ECCENTRICITY":0.0259284,"INCLINATION":74.1023,"RA_OF_ASC_NODE":39.3633,"ARG_OF_PERICENTER":85.2762,"MEAN_ANOMALY":277.7921,"EPHEMERIS_TYPE":0,"CLASSIFICATION_TYPE":"U","NORAD_CAT_ID":36367,"ELEMENT_SET_NO":999,"REV_AT_EPOCH":59107,"BSTAR":0.0026007,"MEAN_MOTION_DOT":3.938e-5,"MEAN_MOTION_DDOT":0},{"OBJECT_NAME":"COSMOS 2251 DEB","OBJECT_ID":"1993-036AYW","EPOCH":"2026-04-03T14:15:10.185696","MEAN_MOTION":14.76332198,"ECCENTRICITY":0.0013048,"INCLINATION":74.0316,"RA_OF_ASC_NODE":212.0834,"ARG_OF_PERICENTER":268.2962,"MEAN_ANOMALY":91.6718,"EPHEMERIS_TYPE":0,"CLASSIFICATION_TYPE":"U","NORAD_CAT_ID":36369,"ELEMENT_SET_NO":999,"REV_AT_EPOCH":87571,"BSTAR":0.0031229,"MEAN_MOTION_DOT":0.0002174,"MEAN_MOTION_DDOT":0},{"OBJECT_NAME":"COSMOS 2251 DEB","OBJECT_ID":"1993-036AYY","EPOCH":"2026-03-27T21:28:26.188320","MEAN_MOTION":14.73465707,"ECCENTRICITY":0.0006828,"INCLINATION":74.0135,"RA_OF_ASC_NODE":316.6907,"ARG_OF_PERICENTER":328.7684,"MEAN_ANOMALY":31.3082,"EPHEMERIS_TYPE":0,"CLASSIFICATION_TYPE":"U","NORAD_CAT_ID":36371,"ELEMENT_SET_NO":999,"REV_AT_EPOCH":72992,"BSTAR":0.0013234,"MEAN_MOTION_DOT":8.574e-5,"MEAN_MOTION_DDOT":0},{"OBJECT_NAME":"COSMOS 2251 DEB","OBJECT_ID":"1993-036AZG","EPOCH":"2026-04-05T06:35:56.779008","MEAN_MOTION":14.36286388,"ECCENTRICITY":0.004705,"INCLINATION":74.0099,"RA_OF_ASC_NODE":98.0263,"ARG_OF_PERICENTER":202.3434,"MEAN_ANOMALY":175.9321,"EPHEMERIS_TYPE":0,"CLASSIFICATION_TYPE":"U","NORAD_CAT_ID":36379,"ELEMENT_SET_NO":999,"REV_AT_EPOCH":66458,"BSTAR":0.00028735,"MEAN_MOTION_DOT":8.24e-6,"MEAN_MOTION_DDOT":0}]
