COSMOS 2251 DEB         
1 36046U 93036AXH 26095.66163672  .00003604  00000+0  64733-3 0  9997
2 36046  74.0141  56.8632 0057234 176.6526 357.2368 14.66001469656729
COSMOS 2251 DEB         
1 36047U 93036AXJ 26095.42341903  .00042778  00000+0  30309-2 0  9993
2 36047  74.0293 103.0090 0004272 208.9901 151.1052 15.04586107676443
COSMOS 2251 DEB         
1 36048U 93036AXK 26095.27669350  .00000855  00000+0  28997-3 0  9997
2 36048  74.0543  90.4550 0025045 117.9611 258.1261 14.38051745871347
COSMOS 2251 DEB         
1 36049U 93036AXL 26095.43638812  .00007921  00000+0  15264-2 0  9998
2 36049  74.0305 261.1330 0010225 318.4264  41.6125 14.63641218870276
COSMOS 2251 DEB         
1 36050U 93036AXM 26095.31597851  .00009759  00000+0  66913-3 0  9993
2 36050  74.0314 322.3064 0082506  11.0815 349.2164 15.03334688687407
COSMOS 2251 DEB         
1 36053U 93036AXQ 26095.81582723  .00007543  00000+0  16002-2 0  9995
2 36053  73.8694 293.4693 0032227 217.2711 142.6217 14.58990534891075
COSMOS 2251 DEB         
1 36058U 93036AXV 26090.57752137  .00003380  00000+0  71000-3 0  9991
2 36058  74.0245 185.9160 0046625 290.9180  68.6997 14.59342071676985
COSMOS 2251 DEB         
1 36060U 93036AXX 26093.53467226  .00001693  00000+0  52046-3 0  9999
2 36060  74.0312  27.1943 0013848 105.1176 255.1514 14.42286809866215
COSMOS 2251 DEB         
1 36061U 93036AXY 26095.40385852  .00000904  00000+0  33094-3 0  9998
2 36061  74.0234 151.6775 0039406 214.8016 145.0558 14.33930610667337
COSMOS 2251 DEB         
1 36073U 93036AYL 26089.36397282  .00000583  00000+0  21283-3 0  9999
2 36073  74.0298 125.2480 0024535 174.0306 186.1143 14.35106407717519
COSMOS 2251 DEB         
1 36074U 93036AYM 26095.50952488  .00003504  00000+0  10059-2 0  9992
2 36074  73.9900 128.2422 0044700 198.6276 161.3248 14.44687971875528
COSMOS 2251 DEB         
1 36366U 93036AYT 26092.63732538  .00005989  00000+0  20458-2 0  9992
2 36366  74.0642  70.4711 0083987  72.7226 288.3094 14.34552816878781
COSMOS 2251 DEB         
1 36367U 93036AYU 26095.55239364  .00003938  00000+0  26007-2 0  9994
2 36367  74.1023  39.3633 0259284  85.2762 277.7921 13.86855056591075
COSMOS 2251 DEB         
1 36369U 93036AYW 26093.59386789  .00021740  00000+0  31229-2 0  9995
2 36369  74.0316 212.0834 0013048 268.2962  91.6718 14.76332198875715
COSMOS 2251 DEB         
1 36371U 93036AYY 26086.89474755  .00008574  00000+0  13234-2 0  9990
2 36371  74.0135 316.6907 0006828 328.7684  31.3082 14.73465707729926
COSMOS 2251 DEB         
1 36379U 93036AZG 26095.27496272  .00000824  00000+0  28735-3 0  9991
2 36379  74.0099  98.0263 0047050 202.3434 175.9321 14.36286388664587
